RADFXSAT (FOX-1B)       
1 43017U 17073E   24177.63039804  .00005087  00000+0  31845-3 0  9990
2 43017  97.5765  52.8238 0208285 265.4790  92.2612 14.93579476356924
EAGLESAT 1              
1 43018U 17073F   24178.21515099  .00016270  00000+0  77779-3 0  9993
2 43018  97.5960  62.7374 0172045 234.1504 124.3640 15.06890394357450
JILIN-1 04              
1 43022U 17074A   24178.49295563  .00008229  00000+0  37622-3 0  9998
2 43022  97.4873 270.1878 0005439 227.6120 132.4655 15.20795332363943
JILIN-1 05              
1 43023U 17074B   24178.50523128  .00007006  00000+0  32228-3 0  9991
2 43023  97.4899 270.7135 0005358 246.9974 113.0696 15.20640783363955
JILIN-1 06              
1 43024U 17074C   24178.54235176  .00005903  00000+0  29320-3 0  9992
2 43024  97.4893 269.4834 0007970 258.1278 101.9062 15.18029916363886
IRIDIUM 116             
1 43072U 17083C   24177.73874093  .00000060  00000+0  14535-4 0  9994
2 43072  86.3963 263.4876 0002326  94.2557 265.8904 14.34217984340761
IRIDIUM 130             
1 43073U 17083D   24178.33494448  .00000055  00000+0  12471-4 0  9995
2 43073  86.3970 263.4436 0002318  94.9520 265.1941 14.34217902340797
LKW-2                   
1 43080U 17084A   24178.49841526  .00010117  00000+0  42541-3 0  9994
2 43080  97.2229 238.6540 0003894 161.8315 198.3063 15.23583366361939
SUPERVIEW-1 03          
1 43099U 18002A   24178.51197592  .00024671  00000+0  70315-3 0  9995
2 43099  97.3748 258.7765 0003432  58.7878 301.3702 15.36064623358042
SUPERVIEW-1 04          
1 43100U 18002B   24178.49388330  .00026107  00000+0  71334-3 0  9995
2 43100  97.3771 259.3814 0001753 138.2064 221.9314 15.37373831358061
CARTOSAT-2F             
1 43111U 18004A   24178.45931220  .00007544  00000+0  36002-3 0  9994
2 43111  97.4300 237.8009 0000682 175.2772 184.8469 15.19349634357900
CARBONITE 2             
1 43115U 18004E   24178.15108683  .00018121  00000+0  42008-3 0  9990
2 43115  97.2678 249.1666 0005662 228.1652 131.9112 15.42452266359321
LKW-3                   
1 43146U 18006A   24178.48959978  .00011033  00000+0  46336-3 0  9996
2 43146  97.5738 313.0164 0004985 132.4931 227.6727 15.23613343358714
ASNARO-2                
1 43152U 18007A   24178.48272963  .00017403  00000+0  75534-3 0  9995
2 43152  97.4112 185.0750 0001821 102.3621 257.7819 15.22390672357768
XIAOXIANG-2             
1 43155U 18008A   24178.53577502  .00152785  00000+0  16049-2 0  9990
2 43155  97.2324 232.7546 0003343  79.8336 280.3300 15.63839917356366
ZHOU ENLAI              
1 43156U 18008B   24177.56104920  .00401975  00000+0  18548-2 0  9997
2 43156  97.2310 234.1057 0003538 214.1026 146.0017 15.82502407356276
QUANTUTONG 1            
1 43158U 18008D   24178.11674594  .00058755  00000+0  10935-2 0  9996
2 43158  97.2531 226.7467 0006602  80.9911 279.2087 15.48649557355851
JILIN-1 07              
1 43159U 18008E   24178.49097624  .00007925  00000+0  38017-3 0  9996
2 43159  97.2436 211.3365 0013306  99.7523 260.5216 15.19062218354980
JILIN-1 08              
1 43160U 18008F   24178.50289175  .00008026  00000+0  38813-3 0  9991
2 43160  97.2441 211.0716 0010040 110.9970 249.2340 15.18813496354971
LEMUR-2-URAMCHANSOL     
1 43183U 18014D   24178.29159204  .00021441  00000+0  11039-2 0  9994
2 43183  97.5872  82.9593 0010666 319.1149  40.9283 15.16383320350222
LEMUR-2-KADI            
1 43184U 18014E   24178.22270236  .00013760  00000+0  76522-3 0  9991
2 43184  97.5668  80.7749 0009009 305.4589  54.5800 15.13759205350132
S-NET D                 
1 43186U 18014G   24178.29704134  .00004774  00000+0  34324-3 0  9998
2 43186  97.5888  79.9785 0009886 345.2083  14.8853 15.04681799349870
S-NET B                 
1 43187U 18014H   24178.16633908  .00004701  00000+0  33814-3 0  9998
2 43187  97.5901  79.8004 0010527 340.6044  19.4780 15.04675703349856
S-NET A                 
1 43188U 18014J   24178.23168177  .00004633  00000+0  33325-3 0  9999
2 43188  97.5902  79.9782 0010472 340.9859  19.0974 15.04683442349869
S-NET C                 
1 43189U 18014K   24178.16844976  .00004551  00000+0  32732-3 0  9990
2 43189  97.5923  79.8655 0011915 332.6193  27.4404 15.04679159348403
GOMX-4B                 
1 43196U 18015E   24178.05788416  .00061610  00000+0  62918-3 0  9991
2 43196  97.6062 352.3594 0006860 266.9809  93.0665 15.64844547356917
GOMX-4A                 
1 43197U 18015F   24178.48144088  .00134988  00000+0  76486-3 0  9994
2 43197  97.5957 358.1228 0006693 245.9548 114.1018 15.78652910357340
PAZ                     
1 43215U 18020A   24178.37647115  .00003192  00000+0  15505-3 0  9995
2 43215  97.4450 185.1106 0001712  87.4303 272.7127 15.19164815351585
GOES 17                 
1 43226U 18022A   24178.17341244 -.00000086  00000+0  00000+0 0  9991
2 43226   0.0146 154.8060 0001004 335.1048 102.5938  1.00270899 23204
LKW-4                   
1 43236U 18025A   24178.32129093  .00011623  00000+0  49186-3 0  9998
2 43236  97.5609 310.5919 0003100 156.3738 203.7642 15.23348078349091
ZHUHAI-1 OHS-01         
1 43439U 18040A   24178.51841333  .00058863  00000+0  96116-3 0  9991
2 43439  97.1230 225.3556 0004019 243.4747 116.6095 15.52373100342992
ZHUHAI-1 OVS-02         
1 43440U 18040B   24178.51697104  .00017076  00000+0  63132-3 0  9991
2 43440  97.1188 224.5276 0005440 336.4477  23.6514 15.27758266342915
ZHUHAI-1 OHS-02         
1 43441U 18040C   24178.46646312  .00018957  00000+0  66362-3 0  9998
2 43441  97.1385 228.0477 0011530 293.5223  66.4807 15.29479737342911
ZHUHAI-1 OHS-04         
1 43443U 18040E   24178.51288883  .00047788  00000+0  76518-3 0  9999
2 43443  97.1324 226.7976 0001969 208.3932 151.7215 15.52974664343019
GAOFEN-6                
1 43484U 18048A   24178.52143408  .00001159  00000+0  17330-3 0  9995
2 43484  97.8635 252.6582 0010728 350.6331   9.4677 14.76532179327046
LUOJIA-1 01             
1 43485U 18048B   24178.48256555  .00002793  00000+0  36394-3 0  9995
2 43485  97.8748 257.0637 0009236 327.8070  32.2578 14.81352141327241
PAKTES 1A               
1 43529U 18056A   24178.49609833  .00003301  00000+0  32486-3 0  9999
2 43529  98.0367 300.7913 0023275 342.2575  17.7828 14.92622876324142
PRSS 1                  
1 43530U 18056B   24178.45695331  .00001291  00000+0  18052-3 0  9994
2 43530  97.8644 252.7471 0001350 106.7355 253.4005 14.79262395321765
HAIYANG-1C              
1 43609U 18068A   24178.46866634  .00000245  00000+0  10342-3 0  9993
2 43609  98.6056 246.7749 0010216  75.0092 285.2223 14.34114808303789
SSTL S1-4               
1 43618U 18071A   24178.47763145  .00001365  00000+0  13032-3 0  9994
2 43618  97.6026  64.7076 0006863  61.5384 298.6527 14.94867058315194
HAIYANG-2B              
1 43655U 18081A   24178.49014569  .00000022  00000+0  64097-4 0  9994
2 43655  99.3354 186.8463 0001940  59.5125 300.6219 13.79306050285577
CZ-4B R/B               
1 43656U 18081B   24177.57026412  .00000234  00000+0  87524-4 0  9998
2 43656  99.4434  24.7998 0206339 182.5325 177.4829 14.31244189296054
CFOSAT                  
1 43662U 18083A   24178.51343172  .00006191  00000+0  32258-3 0  9998
2 43662  97.3745 192.8469 0001232 143.2469 216.8849 15.16336390313310
2018-083B               
1 43663U 18083B   24178.50605635  .00088178  00000+0  11446-2 0  9993
2 43663  97.3208 211.9600 0005639 183.2835 176.8386 15.58518820314678
2018-083C               
1 43664U 18083C   24178.51881760  .00030292  00000+0  69262-3 0  9994
2 43664  97.3407 205.4841 0006026 210.0475 150.0428 15.42761815314369
2018-083D               
1 43665U 18083D   24178.50804512  .00033265  00000+0  73532-3 0  9992
2 43665  97.3404 206.4683 0006763 211.6667 148.4175 15.43746906314411
2018-083G               
1 43668U 18083G   24178.51224559  .00136629  00000+0  13392-2 0  9998
2 43668  97.3274 211.6966 0006350 181.0363 179.0885 15.65632047314834
TEN-KOH                 
1 43677U 18084G   24178.17046358  .00003581  00000+0  32341-3 0  9996
2 43677  98.0639 331.9648 0013463 353.0437   7.0594 14.96100949308065
DIWATA-2B               
1 43678U 18084H   24178.50895446  .00002192  00000+0  20419-3 0  9994
2 43678  98.0726 336.7696 0008944   8.5923 351.5449 14.95342997308313
STARS-AO                
1 43679U 18084J   24178.01034918  .00007145  00000+0  54603-3 0  9995
2 43679  98.0583 342.3254 0003066  83.1093 277.0479 15.02266532308599
AUTCUBE 2               
1 43681U 18084K   24177.43142007  .00003669  00000+0  30194-3 0  9998
2 43681  98.0644 338.5931 0007130 337.0962  22.9941 14.99761822308319
METOP-C                 
1 43689U 18087A   24178.50302802  .00000200  00000+0  11161-3 0  9990
2 43689  98.7230 237.6708 0003036  75.4423 284.7091 14.21479300292444
ES'HAIL 2               
1 43700U 18090A   24178.17734188  .00000149  00000+0  00000+0 0  9995
2 43700   0.0188 342.9978 0002139 150.8980 230.5423  1.00272319 20692
TIANPING 1B             
1 43714U 18094E   24178.52558293  .00017994  00000+0  42412-3 0  9997
2 43714  97.3680 196.7730 0007145 225.3802 134.6863 15.41947450312159
MOHAMMED VI-B           
1 43717U 18095A   24178.47066410  .00001204  00000+0  17769-3 0  9994
2 43717  97.9544 250.1500 0001421 124.3473 235.7872 14.77088669301630
HYSIS                   
1 43719U 18096A   24178.39274212  .00002068  00000+0  28823-3 0  9991
2 43719  97.8650 242.0975 0000237  95.0016 265.1223 14.78783973300903
COSMOS 2530             
1 43751U 18097A   24178.51923033  .00000031  00000+0  14901-3 0  9994
2 43751  82.5152 309.5920 0020368 165.6034 194.5630 12.42883466252851
COSMOS 2531             
1 43752U 18097B   24178.46577695  .00000035  00000+0  18297-3 0  9994
2 43752  82.5199 310.4203 0017309 182.4130 177.6869 12.42890640252851
COSMOS 2532             
1 43753U 18097C   24178.49291120  .00000040  00000+0  21854-3 0  9993
2 43753  82.5143 309.5164 0018599 185.0823 175.0071 12.42889850252854
